TDRS 3                  
1 19548U 88091B   23005.33660701 -.00000292  00000+0  00000+0 0  9991
2 19548  13.5665 349.7639 0039984 331.8176 215.5121  1.00273799112760
HST                     
1 20580U 90037B   23005.42557920  .00003574  00000+0  19483-3 0  9994
2 20580  28.4698 269.6472 0002647  58.4800 104.9883 15.11550510596797
TDRS 5                  
1 21639U 91054B   23005.20930339  .00000089  00000+0  00000+0 0  9994
2 21639  14.2209   3.0816 0026450 348.9953  20.1179  1.00272197115092
TDRS 6                  
1 22314U 93003B   23005.42252080 -.00000291  00000+0  00000+0 0  9991
2 22314  14.1426   6.3410 0006664 138.1936  66.3379  1.00267079109780
TDRS 7                  
1 23613U 95035B   23004.97280156 -.00000195  00000+0  00000+0 0  9998
2 23613  13.8996 357.0517 0024843  50.2850 131.9412  1.00269199100629
ISS (ZARYA)             
1 25544U 98067A   23005.53209984  .00013957  00000+0  25257-3 0  9998
2 25544  51.6449  54.2301 0004890 228.3828 275.1092 15.49940129376567
LANDSAT 7               
1 25682U 99020A   23005.56386574  .00000427  00000+0  98464-4 0  9994
2 25682  97.9537  50.7283 0001288  97.2888 262.8470 14.59876267262050
TERRA                   
1 25994U 99068A   23005.54337753  .00000503  00000+0  11692-3 0  9997
2 25994  98.1164  77.8191 0001339 168.5782 302.5951 14.58962647225945
TDRS 8                  
1 26388U 00034A   23005.55119306 -.00000227  00000+0  00000+0 0  9994
2 26388  10.6855  41.1515 0019773 331.1687  20.0633  1.00264694 82553
TIMED                   
1 26998U 01055B   23005.36469438  .00001075  00000+0  11802-3 0  9995
2 26998  74.0713 237.2873 0000446 299.7587  60.3550 14.89060718143057
TDRS 9                  
1 27389U 02011A   23005.43571836 -.00000283  00000+0  00000+0 0  9992
2 27389   9.4489  58.9761 0027609 295.5385 204.4940  1.00262438 77825
AQUA                    
1 27424U 02022A   23005.55620608  .00000953  00000+0  21952-3 0  9995
2 27424  98.2705 310.7661 0001048  46.5509  68.9325 14.57555532 99629
TDRS 10                 
1 27566U 02055A   23005.35216681  .00000093  00000+0  00000+0 0  9990
2 27566   8.5722  48.8157 0005976 310.6410  60.9264  1.00267313 73614
SORCE                   
1 27651U 03004A   23005.52241916  .00002527  00000+0  26670-3 0  9997
2 27651  39.9927 168.7020 0020910  94.1787 266.1393 14.90606599 83228
AURA                    
1 28376U 04026A   23005.59090256  .00000948  00000+0  22026-3 0  9999
2 28376  98.2327 311.2288 0001517  80.4317 279.7052 14.57148023982704
SWIFT                   
1 28485U 04047A   23005.20347552  .00006757  00000+0  39736-3 0  9995
2 28485  20.5584 332.6419 0009982 339.9629  20.0413 15.07985042994025
THEMIS A                
1 30580U 07004A   23002.92511154 -.00000098  00000+0  45427-1 0  9992
2 30580  12.4580 323.6694 8355438 207.5678  59.2650  0.87832941 30194
THEMIS D                
1 30797U 07004D   23003.07240684 -.00000078  00000+0  00000+0 0  9990
2 30797   8.4122 311.4967 8306495 223.1344 118.3364  0.87835200 29998
THEMIS E                
1 30798U 07004E   23005.40472729 -.00000133  00000+0  00000+0 0  9999
2 30798   9.5881 327.6189 8303255 209.1621 128.2303  0.87859228 54853
AIM                     
1 31304U 07015A   23005.05193221  .00016919  00000+0  74778-3 0  9998
2 31304  97.8629 297.3166 0005851  53.7056 306.4718 15.21775915861808
FGRST (GLAST)           
1 33053U 08029A   23005.32001116  .00002401  00000+0  11609-3 0  9993
2 33053  25.5814 230.0385 0011884   2.5137 357.5457 15.12881363804299
WISE                    
1 36119U 09071A   23005.55680780  .00010848  00000+0  30585-3 0  9990
2 36119  97.2181  41.0519 0001095 356.6135   3.5102 15.36584450726506
TDRS 11                 
1 39070U 13004A   23005.57132661  .00000094  00000+0  00000+0 0  9999
2 39070   2.7798 352.3594 0003269  46.5912  97.3588  1.00265417 34072
TDRS 12                 
1 39504U 14004A   23005.43052955 -.00000254  00000+0  00000+0 0  9993
2 39504   3.7084 351.1618 0001371 213.2586  14.0230  1.00280443 31656
GPM-CORE                
1 39574U 14009C   23005.58083449  .00014007  00000+0  20283-3 0  9992
2 39574  64.9970 220.3203 0009961 266.1395  93.8613 15.56083102503058
MMS 1                   
1 40482U 15011A   23003.65200280 -.00001555  00000+0  00000+0 0  9992
2 40482  29.5241  87.5630 8928602  72.0460  88.8239  0.28517311 13871
MMS 2                   
1 40483U 15011B   23003.65894725 -.00001556  00000+0  00000+0 0  9997
2 40483  29.5203  87.5797 8928217  72.0224  89.5504  0.28518153 13939
MMS 3                   
1 40484U 15011C   23003.58255836 -.00001547  00000+0  00000+0 0  9994
2 40484  29.5242  87.5628 8928397  72.0347  81.7243  0.28516585 13842
MMS 4                   
1 40485U 15011D   23003.67005836 -.00001558  00000+0  00000+0 0  9990
2 40485  29.5228  87.5723 8929459  72.0308  90.6924  0.28518308 13828
TDRS 13                 
1 42915U 17047A   23005.27202126 -.00000083  00000+0  00000+0 0  9992
2 42915   4.2031 335.6547 0012806 112.1775 103.1122  1.00271037 19727
JPSS-1                  
1 43013U 17073A   23005.58433805  .00000086  00000+0  61589-4 0  9991
2 43013  98.7380 306.1454 0001122 114.4268 245.7026 14.19541477265904
